[
  {
    "OBJECT_NAME": "STARLINK-4490",
    "OBJECT_ID": "22097X",
    "EPOCH": "2025-11-11T06:28:16.826880",
    "MEAN_MOTION": 15.08843697,
    "ECCENTRICITY": 0.0001334,
    "INCLINATION": 53.2175,
    "RA_OF_ASC_NODE": 275.9225,
    "ARG_OF_PERICENTER": 89.8353,
    "MEAN_ANOMALY": 270.2792,
    "EPHEMERIS_TYPE": 0,
    "CLASSIFICATION_TYPE": "U",
    "NORAD_CAT_ID": 53409,
    "ELEMENT_SET_NO": 999,
    "REV_AT_EPOCH": 18091,
    "BSTAR": 0.00020197000000000002,
    "MEAN_MOTION_DOT": 2.928e-05,
    "MEAN_MOTION_DDOT": 0.0,
    "TLE_LINE1": "1 53409U 22097X   25315.26963920  .00002928  00000+0  20197-3 0  9996",
    "TLE_LINE2": "2 53409  53.2175 275.9225 0001334  89.8353 270.2792 15.08843697180914",
    "COMMENT": "Grouped by shell and plane from TLE"
  },
  {
    "OBJECT_NAME": "STARLINK-4481",
    "OBJECT_ID": "22097AG",
    "EPOCH": "2025-11-11T06:38:46.117824",
    "MEAN_MOTION": 15.08839438,
    "ECCENTRICITY": 0.0001516,
    "INCLINATION": 53.2184,
    "RA_OF_ASC_NODE": 275.2601,
    "ARG_OF_PERICENTER": 86.725,
    "MEAN_ANOMALY": 273.3916,
    "EPHEMERIS_TYPE": 0,
    "CLASSIFICATION_TYPE": "U",
    "NORAD_CAT_ID": 53418,
    "ELEMENT_SET_NO": 999,
    "REV_AT_EPOCH": 18092,
    "BSTAR": 0.00015351,
    "MEAN_MOTION_DOT": 2.156e-05,
    "MEAN_MOTION_DDOT": 0.0,
    "TLE_LINE1": "1 53418U 22097AG  25315.27692266  .00002156  00000+0  15351-3 0  9998",
    "TLE_LINE2": "2 53418  53.2184 275.2601 0001516  86.7250 273.3916 15.08839438180920",
    "COMMENT": "Grouped by shell and plane from TLE"
  },
  {
    "OBJECT_NAME": "STARLINK-4558",
    "OBJECT_ID": "22097AQ",
    "EPOCH": "2025-11-11T04:47:35.624832",
    "MEAN_MOTION": 15.08839952,
    "ECCENTRICITY": 0.0001518,
    "INCLINATION": 53.2191,
    "RA_OF_ASC_NODE": 276.1999,
    "ARG_OF_PERICENTER": 107.724,
    "MEAN_ANOMALY": 252.3918,
    "EPHEMERIS_TYPE": 0,
    "CLASSIFICATION_TYPE": "U",
    "NORAD_CAT_ID": 53426,
    "ELEMENT_SET_NO": 999,
    "REV_AT_EPOCH": 18089,
    "BSTAR": 0.00012191,
    "MEAN_MOTION_DOT": 1.653e-05,
    "MEAN_MOTION_DDOT": 0.0,
    "TLE_LINE1": "1 53426U 22097AQ  25315.19971788  .00001653  00000+0  12191-3 0  9997",
    "TLE_LINE2": "2 53426  53.2191 276.1999 0001518 107.7240 252.3918 15.08839952180898",
    "COMMENT": "Grouped by shell and plane from TLE"
  },
  {
    "OBJECT_NAME": "STARLINK-4543",
    "OBJECT_ID": "22097AT",
    "EPOCH": "2025-11-11T03:06:54.097056",
    "MEAN_MOTION": 15.08836877,
    "ECCENTRICITY": 0.0001391,
    "INCLINATION": 53.22,
    "RA_OF_ASC_NODE": 276.4737,
    "ARG_OF_PERICENTER": 87.4351,
    "MEAN_ANOMALY": 272.68,
    "EPHEMERIS_TYPE": 0,
    "CLASSIFICATION_TYPE": "U",
    "NORAD_CAT_ID": 53429,
    "ELEMENT_SET_NO": 999,
    "REV_AT_EPOCH": 18088,
    "BSTAR": 6.891500000000001e-05,
    "MEAN_MOTION_DOT": 8.09e-06,
    "MEAN_MOTION_DDOT": 0.0,
    "TLE_LINE1": "1 53429U 22097AT  25315.12979279  .00000809  00000+0  68915-4 0  9994",
    "TLE_LINE2": "2 53429  53.2200 276.4737 0001391  87.4351 272.6800 15.08836877180888",
    "COMMENT": "Grouped by shell and plane from TLE"
  },
  {
    "OBJECT_NAME": "STARLINK-4538",
    "OBJECT_ID": "22097AU",
    "EPOCH": "2025-11-11T04:31:40.353600",
    "MEAN_MOTION": 15.088397,
    "ECCENTRICITY": 0.000133,
    "INCLINATION": 53.2173,
    "RA_OF_ASC_NODE": 276.1266,
    "ARG_OF_PERICENTER": 84.5419,
    "MEAN_ANOMALY": 275.5725,
    "EPHEMERIS_TYPE": 0,
    "CLASSIFICATION_TYPE": "U",
    "NORAD_CAT_ID": 53430,
    "ELEMENT_SET_NO": 999,
    "REV_AT_EPOCH": 18087,
    "BSTAR": 0.0,
    "MEAN_MOTION_DOT": -4e-06,
    "MEAN_MOTION_DDOT": 0.0,
    "TLE_LINE1": "1 53430U 22097AU  25315.18866150 -.00000400  00000+0 -70683-5 0  9990",
    "TLE_LINE2": "2 53430  53.2173 276.1266 0001330  84.5419 275.5725 15.08839700180874",
    "COMMENT": "Grouped by shell and plane from TLE"
  },
  {
    "OBJECT_NAME": "STARLINK-4548",
    "OBJECT_ID": "22097AV",
    "EPOCH": "2025-11-11T06:44:03.840864",
    "MEAN_MOTION": 15.08854928,
    "ECCENTRICITY": 0.0001373,
    "INCLINATION": 53.2173,
    "RA_OF_ASC_NODE": 275.2947,
    "ARG_OF_PERICENTER": 87.9593,
    "MEAN_ANOMALY": 272.1556,
    "EPHEMERIS_TYPE": 0,
    "CLASSIFICATION_TYPE": "U",
    "NORAD_CAT_ID": 53431,
    "ELEMENT_SET_NO": 999,
    "REV_AT_EPOCH": 18091,
    "BSTAR": 0.00016107,
    "MEAN_MOTION_DOT": 2.277e-05,
    "MEAN_MOTION_DDOT": 0.0,
    "TLE_LINE1": "1 53431U 22097AV  25315.28060001  .00002277  00000+0  16107-3 0  9994",
    "TLE_LINE2": "2 53431  53.2173 275.2947 0001373  87.9593 272.1556 15.08854928180917",
    "COMMENT": "Grouped by shell and plane from TLE"
  },
  {
    "OBJECT_NAME": "STARLINK-4557",
    "OBJECT_ID": "22097AW",
    "EPOCH": "2025-11-11T07:05:17.318112",
    "MEAN_MOTION": 15.08850506,
    "ECCENTRICITY": 0.0001527,
    "INCLINATION": 53.2177,
    "RA_OF_ASC_NODE": 275.3768,
    "ARG_OF_PERICENTER": 85.7773,
    "MEAN_ANOMALY": 274.3393,
    "EPHEMERIS_TYPE": 0,
    "CLASSIFICATION_TYPE": "U",
    "NORAD_CAT_ID": 53432,
    "ELEMENT_SET_NO": 999,
    "REV_AT_EPOCH": 18091,
    "BSTAR": 0.00021151,
    "MEAN_MOTION_DOT": 3.081e-05,
    "MEAN_MOTION_DDOT": 0.0,
    "TLE_LINE1": "1 53432U 22097AW  25315.29533933  .00003081  00000+0  21151-3 0  9994",
    "TLE_LINE2": "2 53432  53.2177 275.3768 0001527  85.7773 274.3393 15.08850506180912",
    "COMMENT": "Grouped by shell and plane from TLE"
  },
  {
    "OBJECT_NAME": "STARLINK-4549",
    "OBJECT_ID": "22097AX",
    "EPOCH": "2025-11-11T04:26:22.064640",
    "MEAN_MOTION": 15.08847942,
    "ECCENTRICITY": 0.0001289,
    "INCLINATION": 53.2173,
    "RA_OF_ASC_NODE": 276.1028,
    "ARG_OF_PERICENTER": 86.5203,
    "MEAN_ANOMALY": 273.5937,
    "EPHEMERIS_TYPE": 0,
    "CLASSIFICATION_TYPE": "U",
    "NORAD_CAT_ID": 53433,
    "ELEMENT_SET_NO": 999,
    "REV_AT_EPOCH": 18087,
    "BSTAR": 0.0,
    "MEAN_MOTION_DOT": -9.26e-06,
    "MEAN_MOTION_DDOT": 0.0,
    "TLE_LINE1": "1 53433U 22097AX  25315.18497760 -.00000926  00000+0 -40098-4 0  9999",
    "TLE_LINE2": "2 53433  53.2173 276.1028 0001289  86.5203 273.5937 15.08847942180879",
    "COMMENT": "Grouped by shell and plane from TLE"
  },
  {
    "OBJECT_NAME": "STARLINK-4498",
    "OBJECT_ID": "22097AY",
    "EPOCH": "2025-11-11T06:59:59.241696",
    "MEAN_MOTION": 15.08849176,
    "ECCENTRICITY": 0.0001473,
    "INCLINATION": 53.2175,
    "RA_OF_ASC_NODE": 275.3516,
    "ARG_OF_PERICENTER": 84.4917,
    "MEAN_ANOMALY": 275.6243,
    "EPHEMERIS_TYPE": 0,
    "CLASSIFICATION_TYPE": "U",
    "NORAD_CAT_ID": 53434,
    "ELEMENT_SET_NO": 999,
    "REV_AT_EPOCH": 18092,
    "BSTAR": 0.00013729,
    "MEAN_MOTION_DOT": 1.898e-05,
    "MEAN_MOTION_DDOT": 0.0,
    "TLE_LINE1": "1 53434U 22097AY  25315.29165789  .00001898  00000+0  13729-3 0  9992",
    "TLE_LINE2": "2 53434  53.2175 275.3516 0001473  84.4917 275.6243 15.08849176180929",
    "COMMENT": "Grouped by shell and plane from TLE"
  },
  {
    "OBJECT_NAME": "STARLINK-4542",
    "OBJECT_ID": "22097AZ",
    "EPOCH": "2025-11-11T07:10:35.932800",
    "MEAN_MOTION": 15.0884912,
    "ECCENTRICITY": 0.0001636,
    "INCLINATION": 53.2191,
    "RA_OF_ASC_NODE": 275.3979,
    "ARG_OF_PERICENTER": 86.9886,
    "MEAN_ANOMALY": 273.1294,
    "EPHEMERIS_TYPE": 0,
    "CLASSIFICATION_TYPE": "U",
    "NORAD_CAT_ID": 53435,
    "ELEMENT_SET_NO": 999,
    "REV_AT_EPOCH": 18089,
    "BSTAR": 5.474900000000001e-05,
    "MEAN_MOTION_DOT": 5.84e-06,
    "MEAN_MOTION_DDOT": 0.0,
    "TLE_LINE1": "1 53435U 22097AZ  25315.29902700  .00000584  00000+0  54749-4 0  9994",
    "TLE_LINE2": "2 53435  53.2191 275.3979 0001636  86.9886 273.1294 15.08849120180898",
    "COMMENT": "Grouped by shell and plane from TLE"
  },
  {
    "OBJECT_NAME": "STARLINK-4527",
    "OBJECT_ID": "22097BA",
    "EPOCH": "2025-11-11T06:54:41.381280",
    "MEAN_MOTION": 15.08846037,
    "ECCENTRICITY": 0.0001437,
    "INCLINATION": 53.217,
    "RA_OF_ASC_NODE": 275.3305,
    "ARG_OF_PERICENTER": 99.0345,
    "MEAN_ANOMALY": 261.081,
    "EPHEMERIS_TYPE": 0,
    "CLASSIFICATION_TYPE": "U",
    "NORAD_CAT_ID": 53436,
    "ELEMENT_SET_NO": 999,
    "REV_AT_EPOCH": 18091,
    "BSTAR": 0.00018569,
    "MEAN_MOTION_DOT": 2.669e-05,
    "MEAN_MOTION_DDOT": 0.0,
    "TLE_LINE1": "1 53436U 22097BA  25315.28797895  .00002669  00000+0  18569-3 0  9996",
    "TLE_LINE2": "2 53436  53.2170 275.3305 0001437  99.0345 261.0810 15.08846037180910",
    "COMMENT": "Grouped by shell and plane from TLE"
  },
  {
    "OBJECT_NAME": "STARLINK-4526",
    "OBJECT_ID": "22097BC",
    "EPOCH": "2025-11-11T06:49:22.592064",
    "MEAN_MOTION": 15.08845753,
    "ECCENTRICITY": 0.0001421,
    "INCLINATION": 53.2177,
    "RA_OF_ASC_NODE": 275.3076,
    "ARG_OF_PERICENTER": 89.4684,
    "MEAN_ANOMALY": 270.6471,
    "EPHEMERIS_TYPE": 0,
    "CLASSIFICATION_TYPE": "U",
    "NORAD_CAT_ID": 53438,
    "ELEMENT_SET_NO": 999,
    "REV_AT_EPOCH": 18092,
    "BSTAR": 0.00018344,
    "MEAN_MOTION_DOT": 2.633e-05,
    "MEAN_MOTION_DDOT": 0.0,
    "TLE_LINE1": "1 53438U 22097BC  25315.28428926  .00002633  00000+0  18344-3 0  9996",
    "TLE_LINE2": "2 53438  53.2177 275.3076 0001421  89.4684 270.6471 15.08845753180920",
    "COMMENT": "Grouped by shell and plane from TLE"
  },
  {
    "OBJECT_NAME": "STARLINK-4519",
    "OBJECT_ID": "22097BD",
    "EPOCH": "2025-11-11T07:06:40.536000",
    "MEAN_MOTION": 15.08843547,
    "ECCENTRICITY": 0.0001638,
    "INCLINATION": 53.2191,
    "RA_OF_ASC_NODE": 275.3765,
    "ARG_OF_PERICENTER": 98.6332,
    "MEAN_ANOMALY": 261.4846,
    "EPHEMERIS_TYPE": 0,
    "CLASSIFICATION_TYPE": "U",
    "NORAD_CAT_ID": 53439,
    "ELEMENT_SET_NO": 999,
    "REV_AT_EPOCH": 18092,
    "BSTAR": 7.9111e-05,
    "MEAN_MOTION_DOT": 9.71e-06,
    "MEAN_MOTION_DDOT": 0.0,
    "TLE_LINE1": "1 53439U 22097BD  25315.29630250  .00000971  00000+0  79111-4 0  9996",
    "TLE_LINE2": "2 53439  53.2191 275.3765 0001638  98.6332 261.4846 15.08843547180927",
    "COMMENT": "Grouped by shell and plane from TLE"
  }
]